[{"OBJECT_NAME":"AFR-1","OBJECT_ID":"2023-084AJ","EPOCH":"2026-03-09T23:02:07.499328","MEAN_MOTION":15.27543824,"ECCENTRICITY":0.00099838,"INCLINATION":97.6099,"RA_OF_ASC_NODE":203.4313,"ARG_OF_PERICENTER":334.9676,"MEAN_ANOMALY":25.1077,"EPHEMERIS_TYPE":0,"CLASSIFICATION_TYPE":"U","NORAD_CAT_ID":56964,"ELEMENT_SET_NO":999,"REV_AT_EPOCH":15207,"BSTAR":0.00024843733,"MEAN_MOTION_DOT":6.624e-5,"MEAN_MOTION_DDOT":0},{"OBJECT_NAME":"STARLINK-35942","OBJECT_ID":"2025-286B","EPOCH":"2026-03-09T03:14:49.163136","MEAN_MOTION":15.30183767,"ECCENTRICITY":0.00015205,"INCLINATION":53.1621,"RA_OF_ASC_NODE":0.903,"ARG_OF_PERICENTER":51.6518,"MEAN_ANOMALY":308.462,"EPHEMERIS_TYPE":0,"CLASSIFICATION_TYPE":"U","NORAD_CAT_ID":66926,"ELEMENT_SET_NO":999,"REV_AT_EPOCH":1533,"BSTAR":0.0006344393,"MEAN_MOTION_DOT":0.00018468,"MEAN_MOTION_DDOT":0}]
